H1 CPF  1  HTS 2012  3  8 15  5681 ajisai           NONE
H2  8606101 1500    16908 2012 03 08  0  0  0 2012 03 13  0  0  0   240 1 1  0 0 0
H5  1.0100 
H9 
10 0 55998  77520.00000  0   -6791956.437    1712294.047   -3583706.791
10 0 55998  77760.00000  0   -7438768.932     747055.649   -2455702.793
10 0 55998  78000.00000  0   -7772596.522    -235872.588   -1212138.969
10 0 55998  78240.00000  0   -7777863.103   -1201857.585      88466.728
10 0 55998  78480.00000  0   -7453180.855   -2117359.764    1384910.234
10 0 55998  78720.00000  0   -6811469.337   -2951016.323    2616205.590
10 0 55998  78960.00000  0   -5879420.561   -3674625.106    3724475.946
10 0 55998  79200.00000  0   -4696335.676   -4263997.055    4657681.104
10 0 55998  79440.00000  0   -3312401.551   -4699653.444    5372044.696
10 0 55998  79680.00000  0   -1786504.998   -4967359.349    5834071.295
10 0 55998  79920.00000  0    -183692.454   -5058495.771    6022078.231
10 0 55998  80160.00000  0    1427621.121   -4970273.488    5927186.976
10 0 55998  80400.00000  0    2978577.618   -4705791.289    5553734.539
10 0 55998  80640.00000  0    4402822.807   -4273948.767    4919097.169
10 0 55998  80880.00000  0    5639373.160   -3689211.298    4052928.409
10 0 55998  81120.00000  0    6635287.921   -2971217.192    2995827.492
10 0 55998  81360.00000  0    7348023.437   -2144220.638    1797476.557
10 0 55998  81600.00000  0    7747346.517   -1236374.618     514320.188
10 0 55998  81840.00000  0    7816703.319    -278865.133    -793110.304
10 0 55998  82080.00000  0    7553956.326     695083.416   -2063097.031
10 0 55998  82320.00000  0    6971440.712    1651296.783   -3235702.947
10 0 55998  82560.00000  0    6095341.668    2555790.969   -4255644.566
10 0 55998  82800.00000  0    4964435.715    3375922.381   -5074920.071
10 0 55998  83040.00000  0    3628274.918    4081506.324   -5655059.952
10 0 55998  83280.00000  0    2144924.609    4645869.629   -5968900.348
10 0 55998  83520.00000  0     578370.668    5046811.365   -6001814.286
10 0 55998  83760.00000  0   -1004284.615    5267447.270   -5752358.273
10 0 55998  84000.00000  0   -2535721.403    5296915.646   -5232318.617
10 0 55998  84240.00000  0   -3951282.370    5130919.280   -4466158.562
10 0 55998  84480.00000  0   -5191721.812    4772077.126   -3489889.445
10 0 55998  84720.00000  0   -6205717.603    4230058.623   -2349408.392
10 0 55998  84960.00000  0   -6952041.504    3521473.898   -1098362.530
99
